STARLINK-1694           
1 46544U 20070N   21152.82633380  .00000694  00000-0  65513-4 0  9999
2 46544  53.0496  61.1649 0002032  72.4884 287.6327 15.06396992 37172
STARLINK-1696           
1 46545U 20070P   21152.20387412 -.00001175  00000-0 -59984-4 0  9996
2 46545  53.0576  78.9482 0001678  72.3430 287.7742 15.06393451 36868
STARLINK-1697           
1 46546U 20070Q   21152.52085914 -.00000921  00000-0 -42934-4 0  9999
2 46546  53.0570  77.5241 0001901  69.2319 290.8874 15.06415718 36919
STARLINK-1698           
1 46547U 20070R   21152.48401516  .00000780  00000-0  71252-4 0  9991
2 46547  53.0588  77.6804 0001753  63.3727 296.7442 15.06389287 36937
STARLINK-1699           
1 46548U 20070S   21152.49507020 -.00000782  00000-0 -33634-4 0  9996
2 46548  53.0588  77.6302 0001671  63.0472 297.0688 15.06390716 36917
STARLINK-1700           
1 46549U 20070T   21152.52361496  .00000873  00000-0  77510-4 0  9996
2 46549  53.0559  77.5116 0001562  56.8334 303.2805 15.06389757 36918
STARLINK-1701           
1 46550U 20070U   21153.04059278  .00000676  00000-0  64291-4 0  9991
2 46550  53.0573  75.1917 0001584  57.3689 302.7453 15.06389271 37018
STARLINK-1649           
1 46552U 20070W   21152.53516037  .00000756  00000-0  69669-4 0  9990
2 46552  53.0567  62.4562 0002046  80.4925 279.6295 15.06384719 37133
STARLINK-1664           
1 46553U 20070X   21152.82861091  .00002296  00000-0  17293-3 0  9992
2 46553  53.0568  46.1396 0001695  82.4581 277.6600 15.06407023 37387
STARLINK-1671           
1 46554U 20070Y   21152.48354823  .00001075  00000-0  91063-4 0  9997
2 46554  53.0566  62.6931 0001832  73.7896 286.3294 15.06391769 37137
STARLINK-1674           
1 46555U 20070Z   21152.82217386  .00001352  00000-0  10962-3 0  9994
2 46555  53.0587  36.1532 0001710  93.9630 266.1555 15.06402216 37528
STARLINK-1676           
1 46556U 20070AA  21152.87471600 -.00001046  00000-0 -51349-4 0  9998
2 46556  53.0579  75.9319 0001312  49.3677 310.7426 15.06389227 36975
STARLINK-1679           
1 46557U 20070AB  21152.45404964  .00000823  00000-0  74144-4 0  9990
2 46557  53.0579  62.8197 0001650  83.9386 276.1791 15.06398658 37127
STARLINK-1680           
1 46558U 20070AC  21152.46143257  .00001111  00000-0  93510-4 0  9996
2 46558  53.0564  62.7926 0001925  64.5863 295.5326 15.06390296 37096
STARLINK-1681           
1 46559U 20070AD  21152.84799970  .00000768  00000-0  70506-4 0  9995
2 46559  53.0578  46.0538 0001811  66.5706 293.5474 15.06388408 37384
STARLINK-1706           
1 46560U 20070AE  21152.94060448  .00000883  00000-0  78146-4 0  9995
2 46560  53.0562  60.6384 0001905  83.9754 276.1452 15.06401243 37207
STARLINK-1709           
1 46561U 20070AF  21152.82264444  .00000884  00000-0  78247-4 0  9998
2 46561  53.0558  61.1717 0001633  67.4707 292.6455 15.06398146 37171
STARLINK-1714           
1 46562U 20070AG  21152.95765106 -.00000528  00000-0 -16550-4 0  9990
2 46562  53.0577  55.5610 0001789  72.0005 288.1179 15.06400820 36969
STARLINK-1730           
1 46563U 20070AH  21152.47479570  .00000672  00000-0  64009-4 0  9995
2 46563  53.0567  57.7362 0001738  65.4016 294.7154 15.06390438 37206
STARLINK-1733           
1 46564U 20070AJ  21153.05349083  .00000736  00000-0  68331-4 0  9999
2 46564  53.0561  55.1310 0001932  79.0937 281.0270 15.06394318 37293
STARLINK-1735           
1 46565U 20070AK  21152.76731370  .00000602  00000-0  58188-4 0  9992
2 46565  53.0549  56.3502 0001621  72.2484 287.8682 15.07202571 37238
STARLINK-1740           
1 46566U 20070AL  21153.08298047  .00001043  00000-0  88996-4 0  9998
2 46566  53.0562  55.0025 0001288  60.1183 299.9934 15.06366172 36961
STARLINK-1741           
1 46567U 20070AM  21152.78072535  .00000674  00000-0  64155-4 0  9997
2 46567  53.0579  56.3515 0001849  67.1181 293.0003 15.06394909 37249
STARLINK-1743           
1 46568U 20070AN  21152.50301784  .00001881  00000-0  14312-3 0  9999
2 46568  53.0570  77.5566 0001955  85.1616 274.9596 15.06939951 36913
STARLINK-1747           
1 46569U 20070AP  21152.72913392  .00000548  00000-0  55717-4 0  9992
2 46569  53.0572  56.5918 0001829  70.5384 289.5802 15.06385407 37233
STARLINK-1748           
1 46570U 20070AQ  21152.43792725  .00000870  00000-0  77343-4 0  9994
2 46570  53.0574  57.9006 0001809  78.0044 282.1148 15.06394654 37184
STARLINK-1753           
1 46571U 20070AR  21152.79915521  .00000569  00000-0  57083-4 0  9999
2 46571  53.0571  56.2731 0001879  66.3367 293.7819 15.06394354 37241
STARLINK-1531           
1 46572U 20070AS  21153.09956508 -.00000214  00000-0  45181-5 0  9999
2 46572  53.0556  74.9276 0001657  75.7905 284.3268 15.06397242 37021
STARLINK-1650           
1 46573U 20070AT  21152.47987011  .00000682  00000-0  64700-4 0  9999
2 46573  53.0573  62.7093 0001921  75.3453 284.7749 15.06383891 37125
STARLINK-1660           
1 46574U 20070AU  21152.46512086 -.00001120  00000-0 -56292-4 0  9992
2 46574  53.0576  62.7720 0002012  69.3811 290.7393 15.06386135 37125
STARLINK-1675           
1 46575U 20070AV  21152.39092220  .00000785  00000-0  71609-4 0  9991
2 46575  53.0594  38.0908 0001807  77.7414 282.3778 15.06384669 37453
STARLINK-1677           
1 46576U 20070AW  21152.92217867  .00000734  00000-0  68174-4 0  9994
2 46576  53.0571  60.7276 0002080  62.6958 297.4242 15.06388450 37195
STARLINK-1682           
1 46577U 20070AX  21152.95166280  .00000918  00000-0  80503-4 0  9994
2 46577  53.0579  60.5890 0001856  75.4493 284.6702 15.06395769 37190
STARLINK-1683           
1 46578U 20070AY  21152.39735593  .00001077  00000-0  91192-4 0  9995
2 46578  53.0579  48.0715 0001758  77.1870 282.9315 15.06397336 37325
STARLINK-1705           
1 46579U 20070AZ  21152.47249516  .00000962  00000-0  83488-4 0  9991
2 46579  53.0571  62.7375 0001971  72.8603 287.2601 15.06391436 37125
STARLINK-1708           
1 46580U 20070BA  21152.84845847  .00000802  00000-0  72750-4 0  9996
2 46580  53.0573  61.0540 0001674  69.4472 290.6696 15.06388656 37189
STARLINK-1712           
1 46581U 20070BB  21153.07928000  .00001091  00000-0  92149-4 0  9991
2 46581  53.0534  55.0146 0001762  73.0499 287.0683 15.06405241 37287
STARLINK-1728           
1 46582U 20070BC  21152.47384630 -.00001080  00000-0 -53626-4 0  9997
2 46582  53.0584  57.7334 0001875  72.7324 287.3870 15.06389172 37194
STARLINK-1729           
1 46583U 20070BD  21152.51717627  .00001166  00000-0  97131-4 0  9991
2 46583  53.0579  77.5401 0001349  65.3795 294.7335 15.06405395 36913
STARLINK-1732           
1 46584U 20070BE  21152.47110841  .00001074  00000-0  90999-4 0  9995
2 46584  53.0570  57.7521 0001940  63.1837 296.9351 15.06393875 36885
STARLINK-1736           
1 46585U 20070BF  21152.82126714  .00001302  00000-0  10632-3 0  9990
2 46585  53.0565  56.1783 0002073  71.5758 288.5456 15.06398489 37246
STARLINK-1737           
1 46586U 20070BG  21153.07560130 -.00001105  00000-0 -55276-4 0  9990
2 46586  53.0583  55.0296 0001725  74.9352 285.1828 15.06395481 36967
STARLINK-1744           
1 46587U 20070BH  21153.08185548  .00360295  00000-0  34046-2 0  9994
2 46587  53.0556 358.7385 0007206 278.7628  81.2570 15.65318530 38078
STARLINK-1746           
1 46588U 20070BJ  21152.92448774  .00000742  00000-0  68701-4 0  9995
2 46588  53.0568  55.7166 0001690  75.9350 284.1827 15.06387526 37279
STARLINK-1749           
1 46589U 20070BK  21152.45267459 -.00001064  00000-0 -52575-4 0  9995
2 46589  53.0486  57.8472 0000846 281.8460  78.2434 15.06389337 37182
STARLINK-1754           
1 46590U 20070BL  21152.68801860  .00027412  00000-0  33645-3 0  9991
2 46590  53.0542 359.0291 0002807  18.5475 341.5639 15.60127594 38036
STARLINK-1755           
1 46591U 20070BM  21152.83970491 -.00000883  00000-0 -40377-4 0  9992
2 46591  53.0592  56.0792 0001659  72.6075 287.5095 15.06388666 36305
STARLINK-1715           
1 46671U 20073B   21152.97790422 -.00001540  00000-0 -84515-4 0  9996
2 46671  53.0554 145.4671 0000828  40.6898 319.4153 15.06403953 35021
STARLINK-1716           
1 46672U 20073C   21153.01801037  .00000049  00000-0  22189-4 0  9998
2 46672  53.0569 140.2894 0001049  76.2627 283.8478 15.06391660 35103
STARLINK-1717           
1 46673U 20073D   21152.72264473  .00000757  00000-0  69703-4 0  9992
2 46673  53.0533 156.6227 0000495  38.8773 321.2252 15.06403111 34365
STARLINK-1718           
1 46674U 20073E   21152.44668281  .00001170  00000-0  97366-4 0  9993
2 46674  53.0557 142.8539 0000904  54.1284 305.9789 15.06419423 35018
STARLINK-1720           
1 46675U 20073F   21152.70839686  .00000081  00000-0  24352-4 0  9997
2 46675  53.0559 141.6795 0000940  51.5486 308.5587 15.06398130 34573
STARLINK-1731           
1 46676U 20073G   21153.05808040  .00131567  00000-0  79536-2 0  9993
2 46676  53.0820 119.9206 0002277  58.9760 301.1454 15.09649416 35393
STARLINK-1766           
1 46677U 20073H   21152.97010070  .00001838  00000-0  14224-3 0  9993
2 46677  53.0549 140.5019 0000832  53.0011 307.1054 15.06397102 35092
STARLINK-1773           
1 46679U 20073K   21152.64389274  .00000362  00000-0  43252-4 0  9999
2 46679  53.0541 121.9540 0004875 113.2285 246.9218 15.06406798 34847
STARLINK-1774           
1 46680U 20073L   21152.84526378  .00000343  00000-0  41874-4 0  9998
2 46680  53.0526 156.0674 0000578  59.5334 300.5712 15.06394329 34383
STARLINK-1775           
1 46681U 20073M   21152.74941744  .00000432  00000-0  47847-4 0  9991
2 46681  53.0547 156.4793 0000706  57.1043 303.0014 15.06399478 34368
STARLINK-1776           
1 46682U 20073N   21152.70888460  .00000101  00000-0  25674-4 0  9990
2 46682  53.0541 156.6784 0000791  69.2961 290.8113 15.06389239 34369
STARLINK-1778           
1 46683U 20073P   21152.97563211  .00210848  00000-0  57706-2 0  9994
2 46683  53.0500 152.8777 0000651 137.1623 222.9429 15.36027045 34914
STARLINK-1780           
1 46684U 20073Q   21152.69734423  .00002068  00000-0  15770-3 0  9998
2 46684  53.0544 141.7342 0000970  71.5555 288.5540 15.06397367 34575
